ONEWEB-0683             
1 56719U 23068K   25316.97654470  .00000012  00000+0 -33638-5 0  9997
2 56719  87.8970 302.3254 0001788  79.0837 281.0495 13.15550541120996
ONEWEB-0684             
1 56720U 23068L   25316.98447778 -.00000038  00000+0 -13600-3 0  9995
2 56720  87.8964 302.3193 0003259  91.8549 268.2954 13.15549091120827
ONEWEB-0686             
1 56721U 23068M   25317.18352080 -.00009536  00000+0 -24985-1 0  9998
2 56721  87.9006 271.8132 0002021  72.3726 287.7626 13.16649959123297
ONEWEB-0694             
1 56722U 23068N   25316.61908850  .00000110  00000+0  25542-3 0  9997
2 56722  87.9020 271.8667 0001779  66.1993 293.9324 13.16593845123277
ONEWEB-0696             
1 56723U 23068P   25316.94168223  .00000221  00000+0  55300-3 0  9994
2 56723  87.8961 302.3824 0002132  94.3535 265.7838 13.15550145120937
ONEWEB-0703             
1 56724U 23068Q   25316.95119752  .00000189  00000+0  46672-3 0  9994
2 56724  87.8961 302.3628 0002397 110.9170 249.2217 13.15548448120822
ONEWEB-0721             
1 56725U 23068R   25317.05591824  .00000050  00000+0  86121-4 0  9992
2 56725  86.6800 154.4533 0001437  85.1560 274.9737 13.22451235129379
ONEWEB-0015             
1 61594U 24188A   25316.77922174 -.00000194  00000+0 -58211-3 0  9999
2 61594  87.8859  64.1953 0001107 115.5250 244.5993 13.11416340 56098
